CUTE-1 (CO-55)          
1 27844U 03031E   26159.88839157  .00000286  00000+0  14250-3 0  9994
2 27844  98.6735 168.5516 0008985 202.7480 157.3302 14.24330680190495
CUBESAT XI-IV (CO-57)   
1 27848U 03031J   26160.01325553  .00000222  00000+0  11652-3 0  9998
2 27848  98.6766 168.3941 0008561 222.5153 137.5363 14.23616414190218
CUBESAT XI-V            
1 28895U 05043F   26158.95798337  .00001615  00000+0  26180-3 0  9999
2 28895  98.2976 314.3867 0013088 231.5140 128.4894 14.72607812100390
CUTE-1.7+APD II (CO-65) 
1 32785U 08021C   26160.22741874  .00005125  00000+0  32464-3 0  9990
2 32785  97.8272 141.4808 0010342  62.0877 298.1398 15.09376314983995
CANX-2                  
1 32790U 08021H   26159.91418682  .00003251  00000+0  22997-3 0  9996
2 32790  97.8626 139.5320 0011979  75.2452 285.0100 15.05555426983561
SEEDS II (CO-66)        
1 32791U 08021J   26159.97434669  .00017316  00000+0  55427-3 0  9997
2 32791  97.7521 157.4812 0002329  29.1671 330.9700 15.32470622986035
SWISSCUBE               
1 35932U 09051B   26159.00067640  .00001155  00000+0  23775-3 0  9991
2 35932  98.4042  66.7288 0005474 236.3791 123.6888 14.62465103887819
BEESAT-1                
1 35933U 09051C   26160.16905242  .00000747  00000+0  15973-3 0  9997
2 35933  98.3972  67.5698 0003910 248.9376 111.1406 14.61707455888015
ITUPSAT1                
1 35935U 09051E   26158.98819542  .00000873  00000+0  19037-3 0  9998
2 35935  98.4056  65.5723 0006074 268.4530  91.5974 14.60427678887397
TISAT 1                 
1 36799U 10035E   26159.81960296  .00020138  00000+0  66607-3 0  9998
2 36799  98.0700 105.6282 0000185 170.3248 189.7995 15.31390446866423
AEROCUBE 4.5A           
1 38767U 12048K   26160.06357825  .00309596  42163-4  10167-2 0  9996
2 38767  64.6259  56.5026 0019636 216.6913 143.2904 15.89953795371366
STRAND-1                
1 39090U 13009E   26159.77100359  .00000307  00000+0  11756-3 0  9991
2 39090  98.3921 340.2126 0007427 254.1198 105.9170 14.37158481695851
BRITE-AUSTRIA           
1 39091U 13009F   26160.05885664  .00000151  00000+0  66011-4 0  9996
2 39091  98.3993 339.6960 0008962 263.9907  96.0258 14.36538801695887
NEE-01 PEGASO           
1 39151U 13018B   26159.35571900  .00003217  00000+0  31012-3 0  9997
2 39151  98.1214 303.2151 0012466 186.8479 173.2571 14.93619595709388
POPACS 2                
1 39269U 13055E   26159.98942441  .00010457  00000+0  17808-3 0  9990
2 39269  80.9909 153.5751 0417111 220.1304 136.8418 14.91012994661992
POPACS 3                
1 39270U 13055F   26159.52964872  .00010683  00000+0  25137-3 0  9999
2 39270  81.0011 238.5709 0552877  96.3321 270.1114 14.55959449637294
ZACUBE-1 (TSHEPISOSAT)  
1 39417U 13066B   26160.14189494  .00002997  00000+0  23503-3 0  9997
2 39417  97.8092 122.4351 0040054 275.9917  83.6743 15.01137906679525
WNISAT-1                
1 39423U 13066H   26159.97595237  .00000711  00000+0  13858-3 0  9993
2 39423  97.7194 309.7155 0161694 257.6617 100.6442 14.58049673665530
TRITON-1                
1 39427U 13066M   26160.19179188  .00002754  00000+0  33386-3 0  9993
2 39427  97.8247  70.1806 0088290 260.4185  98.7044 14.81681908672901
GOMX-1                  
1 39430U 13066Q   26160.15085105  .00001768  00000+0  26975-3 0  9998
2 39430  97.6492   1.1205 0130109 103.0484 258.5284 14.69429927668738
CUBEBUG-2 (LO-74)       
1 39440U 13066AA  26160.09167476  .00003409  00000+0  31702-3 0  9992
2 39440  97.8903 109.0359 0059191  55.3304 305.3474 14.93697738675786
NEE-02 KRYSAOR          
1 39441U 13066AB  26160.06484735  .00001853  00000+0  20686-3 0  9990
2 39441  97.8887  99.3379 0067700  96.1920 264.7013 14.86583594674998
FUNCUBE-1 (AO-73)       
1 39444U 13066AE  26160.16786604  .00005048  00000+0  31574-3 0  9992
2 39444  97.8270 131.4468 0034829 228.8451 130.9771 15.09393647678457
UWE-3                   
1 39446U 13066AG  26160.12782108  .00003499  00000+0  30256-3 0  9999
2 39446  97.8686 116.1479 0048769 348.2293  11.7784 14.96959057676378
BRITE-CA1 (TORONTO)     
1 40020U 14033L   26160.15620816  .00000625  00000+0  10175-3 0  9990
2 40020  97.9729 289.2326 0077424 303.1796  56.2002 14.72665540641035
DUCHIFAT-1              
1 40021U 14033M   26160.08702088  .00082350  00000+0  90222-3 0  9991
2 40021  98.0464 218.1182 0004325 130.2252 229.9384 15.62989578654486
NANOSATC-BR1            
1 40024U 14033Q   26160.03741031  .00014864  00000+0  49566-3 0  9990
2 40024  98.0734 191.7047 0003544 185.9906 174.1292 15.31195370652730
QB50P1                  
1 40025U 14033R   26159.97738240  .00008544  00000+0  42192-3 0  9996
2 40025  98.0972 170.5484 0007210 248.4220 111.6244 15.18136091651780
QB50P2                  
1 40032U 14033Y   26159.97677567  .00006703  00000+0  36214-3 0  9991
2 40032  98.0755 156.3466 0007148 189.6567 170.4527 15.15055659651424
PERSEUS-M2              
1 40037U 14033AD  26160.16793285  .00001337  00000+0  12621-3 0  9999
2 40037  97.9971 110.5461 0011336 334.7993  25.2672 14.95491261649586
